NORAD_CAT_ID,OBJECT_NAME,OBJECT_TYPE,EPOCH,MEAN_MOTION,ECCENTRICITY,INCLINATION,RA_OF_ASC_NODE,ARG_OF_PERICENTER,MEAN_ANOMALY,BSTAR,MEAN_MOTION_DOT,MEAN_MOTION_DDOT,TLE_LINE0,TLE_LINE1,TLE_LINE2,SEMIMAJOR_AXIS,PERIOD,APOGEE,PERIGEE,DECAYED
50188.0,STARLINK-3275,PAYLOAD,2022-09-21 20:44:26,15.08822164,0.0001648,53.2163,157.1329,53.6247,306.4897,-8.400700000000001e-05,-1.624e-05,0.0,0 STARLINK-3275,1 50188U 21125AJ  22264.86420088 -.00001624  00000-0 -84007-4 0  9993,2 50188  53.2163 157.1329 0001648  53.6247 306.4897 15.08822164 45832,6917.935,95.439,540.94,538.66,0.0
50188.0,STARLINK-3275,PAYLOAD,2022-09-22 04:41:22,15.0882639,0.0001584,53.2162,155.6458,57.7324,302.3821,-5.5687e-05,-1.174e-05,0.0,0 STARLINK-3275,1 50188U 21125AJ  22265.19539977 -.00001174  00000-0 -55687-4 0  9990,2 50188  53.2162 155.6458 0001584  57.7324 302.3821 15.08826390 42741,6917.922,95.438,540.883,538.691,0.0
50188.0,STARLINK-3275,PAYLOAD,2022-09-22 12:38:18,15.08843188,0.0001717,53.2162,154.159,60.2644,299.8519,-0.00019579,-3.403e-05,0.0,0 STARLINK-3275,1 50188U 21125AJ  22265.52659919 -.00003403  00000-0 -19579-3 0  9992,2 50188  53.2162 154.1590 0001717  60.2644 299.8519 15.08843188 45936,6917.871,95.437,540.923,538.548,0.0
50188.0,STARLINK-3275,PAYLOAD,2022-09-22 22:10:36,15.08836862,0.0001582,53.2162,152.3748,57.379,302.7355,-2.7777e-05,-7.299999999999999e-06,0.0,0 STARLINK-3275,1 50188U 21125AJ  22265.92403647 -.00000730  00000-0 -27777-4 0  9991,2 50188  53.2162 152.3748 0001582  57.3790 302.7355 15.08836862 45999,6917.89,95.438,540.849,538.661,0.0
50188.0,STARLINK-3275,PAYLOAD,2022-09-23 10:53:41,15.0884141,0.0001595999999999,53.2162,149.9958,57.8819,302.2328,7.7206e-05,9.41e-06,0.0,0 STARLINK-3275,1 50188U 21125AJ  22266.45395108  .00000941  00000-0  77206-4 0  9996,2 50188  53.2162 149.9958 0001596  57.8819 302.2328 15.08841410 42937,6917.876,95.437,540.845,538.637,0.0
50188.0,STARLINK-3275,PAYLOAD,2022-09-23 12:29:04,15.08842711,0.0001597,53.2162,149.6984,57.8988,302.2159,9.4803e-05,1.221e-05,0.0,0 STARLINK-3275,1 50188U 21125AJ  22266.52018976  .00001221  00000-0  94803-4 0  9993,2 50188  53.2162 149.6984 0001597  57.8988 302.2159 15.08842711 46088,6917.871999999999,95.437,540.842,538.632,0.0
50188.0,STARLINK-3275,PAYLOAD,2022-09-23 20:25:59,15.08840032,0.0001599,53.2162,148.2116,58.6359,301.4790000000001,0.00028003,4.171e-05,0.0,0 STARLINK-3275,1 50188U 21125AJ  22266.85138648  .00004171  00000-0  28003-3 0  9993,2 50188  53.2162 148.2116 0001599  58.6359 301.4790 15.08840032 46135,6917.88,95.438,540.851,538.639,0.0
50188.0,STARLINK-3275,PAYLOAD,2022-09-24 02:47:33,15.08833774,0.0001614,53.2161,147.0222,59.7113,300.4038,0.00019878,2.876e-05,0.0,0 STARLINK-3275,1 50188U 21125AJ  22267.11635549  .00002876  00000-0  19878-3 0  9995,2 50188  53.2161 147.0222 0001614  59.7113 300.4038 15.08833774 43032,6917.899,95.438,540.881,538.648,0.0
50188.0,STARLINK-3275,PAYLOAD,2022-09-24 12:19:51,15.08843328,0.0001593,53.2162,145.2379,60.2085,299.9065,0.0002032999999999,2.949e-05,0.0,0 STARLINK-3275,1 50188U 21125AJ  22267.51379038  .00002949  00000-0  20330-3 0  9993,2 50188  53.2162 145.2379 0001593  60.2085 299.9065 15.08843328 43091,6917.87,95.437,540.837,538.633,0.0
50188.0,STARLINK-3275,PAYLOAD,2022-09-24 20:16:47,15.08842262,0.0001641999999999,53.2161,143.7511,61.0017,299.1139,0.00014528,2.025e-05,0.0,0 STARLINK-3275,1 50188U 21125AJ  22267.84499513  .00002025  00000-0  14528-3 0  9997,2 50188  53.2161 143.7511 0001642  61.0017 299.1139 15.08842262 46284,6917.873000000001,95.437,540.874,538.6030000000002,0.0
50188.0,STARLINK-3275,PAYLOAD,2022-09-25 01:02:56,15.08848381,0.0001634,53.2154,142.8593,62.0144,298.1013,0.00016495,2.339e-05,0.0,0 STARLINK-3275,1 50188U 21125AJ  22268.04371073  .00002339  00000-0  16495-3 0  9993,2 50188  53.2154 142.8593 0001634  62.0144 298.1013 15.08848381 46311,6917.855,95.437,540.85,538.589,0.0
50188.0,STARLINK-3275,PAYLOAD,2022-09-25 18:32:11,15.08843671,0.0001674,53.2153,139.5882,62.1603,297.9559,7.3736e-06,-1.71e-06,0.0,0 STARLINK-3275,1 50188U 21125AJ  22268.77235136 -.00000171  00000-0  73736-5 0  9998,2 50188  53.2153 139.5882 0001674  62.1603 297.9559 15.08843671 43281,6917.869000000002,95.437,540.8919999999998,538.576,0.0
50188.0,STARLINK-3275,PAYLOAD,2022-09-25 21:42:57,15.088459299999998,0.0001662,53.2153,138.9935,62.9338,297.1823,4.0035e-05,3.49e-06,0.0,0 STARLINK-3275,1 50188U 21125AJ  22268.90482995  .00000349  00000-0  40035-4 0  9991,2 50188  53.2153 138.9935 0001662  62.9338 297.1823 15.08845930 46440,6917.861999999999,95.437,540.877,538.578,0.0
50188.0,STARLINK-3275,PAYLOAD,2022-09-26 08:50:39,15.08835179,0.0001655,53.2153,136.9118,64.7598,295.3565,-1.2019e-05,-4.79e-06,0.0,0 STARLINK-3275,1 50188U 21125AJ  22269.36851603 -.00000479  00000-0 -12019-4 0  9995,2 50188  53.2153 136.9118 0001655  64.7598 295.3565 15.08835179 43377,6917.895,95.438,540.905,538.615,0.0
50188.0,STARLINK-3275,PAYLOAD,2022-09-26 12:01:25,15.088385,0.0001631,53.2151,136.3172,61.1335,298.982,1.5696e-05,-3.8e-07,0.0,0 STARLINK-3275,1 50188U 21125AJ  22269.50099452 -.00000038  00000-0  15696-4 0  9991,2 50188  53.2151 136.3172 0001631  61.1335 298.9820 15.08838500 46538,6917.885,95.438,540.878,538.622,0.0
50188.0,STARLINK-3275,PAYLOAD,2022-09-26 21:33:44,15.08840273,0.0001595999999999,53.215,134.5328,61.2411,298.8741,0.00013249,1.821e-05,0.0,0 STARLINK-3275,1 50188U 21125AJ  22269.89843491  .00001821  00000-0  13249-3 0  9994,2 50188  53.2150 134.5328 0001596  61.2411 298.8741 15.08840273 46593,6917.88,95.438,540.849,538.64,0.0
50188.0,STARLINK-3275,PAYLOAD,2022-09-27 18:13:45,15.08840505,0.0001587,53.2148,130.6671,58.9341,301.1806,0.00011915,1.609e-05,0.0,0 STARLINK-3275,1 50188U 21125AJ  22270.75955545  .00001609  00000-0  11915-3 0  9997,2 50188  53.2148 130.6671 0001587  58.9341 301.1806 15.08840505 43587,6917.879,95.438,540.842,538.646,0.0
50188.0,STARLINK-3275,PAYLOAD,2022-09-28 16:29:09,15.08838792,0.0001559,53.2148,126.5037,58.933,301.1815,9.3026e-05,1.193e-05,0.0,0 STARLINK-3275,1 50188U 21125AJ  22271.68691576  .00001193  00000-0  93026-4 0  9993,2 50188  53.2148 126.5037 0001559  58.9330 301.1815 15.08838792 46863,6917.884,95.438,540.828,538.6709999999998,0.0
50188.0,STARLINK-3275,PAYLOAD,2022-09-29 00:26:05,15.08840763,0.0001557,53.215,125.0164,59.6262,300.4884,8.993e-05,1.144e-05,0.0,0 STARLINK-3275,1 50188U 21125AJ  22272.01811457  .00001144  00000-0  89930-4 0  9998,2 50188  53.2150 125.0164 0001557  59.6262 300.4884 15.08840763 43777,6917.878000000002,95.438,540.82,538.6659999999998,0.0
50188.0,STARLINK-3275,PAYLOAD,2022-09-29 11:33:46,15.08850978,0.0001544,53.215,122.9353,58.36600000000001,301.7482,8.0088e-05,9.87e-06,0.0,0 STARLINK-3275,1 50188U 21125AJ  22272.48178786  .00000987  00000-0  80088-4 0  9999,2 50188  53.2150 122.9353 0001544  58.3660 301.7482 15.08850978 43842,6917.847,95.437,540.78,538.644,0.0
50188.0,STARLINK-3275,PAYLOAD,2022-09-29 13:09:09,15.08845509,0.0001638,53.2157,122.6384,53.2339,306.8803,0.00016755,2.380000000000001e-05,0.0,0 STARLINK-3275,1 50188U 21125AJ  22272.54803175  .00002380  00000-0  16755-3 0  9991,2 50188  53.2157 122.6384 0001638  53.2339 306.8803 15.08845509 46997,6917.864000000001,95.437,540.862,538.595,0.0
50188.0,STARLINK-3275,PAYLOAD,2022-09-29 16:19:56,15.08835636,0.0001449,53.2149,122.0431,61.5386,298.5752,-9.8168e-06,-4.44e-06,0.0,0 STARLINK-3275,1 50188U 21125AJ  22272.68051565 -.00000444  00000-0 -98168-5 0  9995,2 50188  53.2149 122.0431 0001449  61.5386 298.5752 15.08835636 43873,6917.894,95.438,540.761,538.756,0.0
50188.0,STARLINK-3275,PAYLOAD,2022-09-29 21:06:05,15.08837134,0.0001503,53.215,121.1512,57.7613,302.3525,1.2322e-05,-9.2e-07,0.0,0 STARLINK-3275,1 50188U 21125AJ  22272.87923550 -.00000092  00000-0  12322-4 0  9993,2 50188  53.2150 121.1512 0001503  57.7613 302.3525 15.08837134 47046,6917.889,95.438,540.794,538.714,0.0
50188.0,STARLINK-3275,PAYLOAD,2022-09-30 06:38:24,15.08840542,0.0001569,53.2149,119.3669,57.6463,302.4681,0.00016392,2.322e-05,0.0,0 STARLINK-3275,1 50188U 21125AJ  22273.27667424  .00002322  00000-0  16392-3 0  9990,2 50188  53.2149 119.3669 0001569  57.6463 302.4681 15.08840542 47108,6917.879,95.438,540.8290000000002,538.658,0.0
50188.0,STARLINK-3275,PAYLOAD,2022-09-30 16:10:43,15.08845514,0.0001588,53.2148,117.5826,57.7974,302.3172,0.00021522,3.139e-05,0.0,0 STARLINK-3275,1 50188U 21125AJ  22273.67411278  .00003139  00000-0  21522-3 0  9996,2 50188  53.2148 117.5826 0001588  57.7974 302.3172 15.08845514 44027,6917.864000000001,95.437,540.827,538.63,0.0
50188.0,STARLINK-3275,PAYLOAD,2022-09-30 20:56:52,15.08841633,0.0001544,53.2149,116.6898,58.0045,302.1097,0.00011182,1.492e-05,0.0,0 STARLINK-3275,1 50188U 21125AJ  22273.87283266  .00001492  00000-0  11182-3 0  9993,2 50188  53.2149 116.6898 0001544  58.0045 302.1097 15.08841633 47195,6917.875,95.437,540.809,538.672,0.0
50188.0,STARLINK-3275,PAYLOAD,2022-10-01 06:29:11,15.0884035,0.0001485,53.2151,114.9056,59.4428,300.6711,6.356399999999999e-05,7.24e-06,0.0,0 STARLINK-3275,1 50188U 21125AJ  22274.27027274  .00000724  00000-0  63564-4 0  9992,2 50188  53.2151 114.9056 0001485  59.4428 300.6711 15.08840350 47257,6917.879,95.438,540.7719999999998,538.717,0.0
50188.0,STARLINK-3275,PAYLOAD,2022-10-01 20:47:39,15.08847443,0.0001528,53.2151,112.2292,57.9941,302.1199,0.00021304,3.105e-05,0.0,0 STARLINK-3275,1 50188U 21125AJ  22274.86643023  .00003105  00000-0  21304-3 0  9994,2 50188  53.2151 112.2292 0001528  57.9941 302.1199 15.08847443 47348,6917.858,95.437,540.78,538.6659999999998,0.0
50188.0,STARLINK-3275,PAYLOAD,2022-10-02 06:19:58,15.0883685,0.0001536,53.2152,110.4451,60.4137,299.7008,1.8923e-05,1.3e-07,0.0,0 STARLINK-3275,1 50188U 21125AJ  22275.26387440  .00000013  00000-0  18923-4 0  9996,2 50188  53.2152 110.4451 0001536  60.4137 299.7008 15.08836850 47408,6917.89,95.438,540.818,538.692,0.0
